{"type": "FeatureCollection", "features": [ {"type": "Feature", "properties": {"norad_id": 35669, "name": "COSMOS 2251 DEB", "group": "cosmos-2251-debris", "lat": -48.585872579698155, "lon": 14.471684249227122, "alt_km": 890.0570905076247, "timestamp": "2025-12-02T23:34:15.913725+00:00", "meta": {"OBJECT_NAME": "COSMOS 2251 DEB", "OBJECT_ID": "1993-036APL", "EPOCH": "2025-11-22T23:34:15.709728", "MEAN_MOTION": 13.57109563, "ECCENTRICITY": 0.03876416, "INCLINATION": 73.8603, "RA_OF_ASC_NODE": 191.6143, "ARG_OF_PERICENTER": 306.7499, "MEAN_ANOMALY": 49.8593, "EPHEMERIS_TYPE": 0, "CLASSIFICATION_TYPE": "U", "NORAD_CAT_ID": 35669, "ELEMENT_SET_NO": 999, "REV_AT_EPOCH": 60521, "BSTAR": 0.00098529597, "MEAN_MOTION_DOT": 1.118e-05, "MEAN_MOTION_DDOT": 0}, "tle": {"line1": "1 35669U 93036APL 25326.98212627  .00001118  00000+0  98530-3 0  9993", "line2": "2 35669  73.8603 191.6143 0387641 306.7499  49.8593 13.57109563605212"}}, "geometry": {"type": "Point", "coordinates": [14.471684249227122, -48.585872579698155]}}, {"type": "Feature", "properties": {"norad_id": 35670, "name": "COSMOS 2251 DEB", "group": "cosmos-2251-debris", "lat": 65.16139644952179, "lon": 122.9255548557513, "alt_km": 556.6151678962542, "timestamp": "2025-12-02T23:34:15.913735+00:00", "meta": {"OBJECT_NAME": "COSMOS 2251 DEB", "OBJECT_ID": "1993-036APM", "EPOCH": "2025-11-28T16:21:38.893824", "MEAN_MOTION": 14.93319544, "ECCENTRICITY": 0.00368765, "INCLINATION": 73.8939, "RA_OF_ASC_NODE": 93.0212, "ARG_OF_PERICENTER": 58.821, "MEAN_ANOMALY": 301.6579, "EPHEMERIS_TYPE": 0, "CLASSIFICATION_TYPE": "U", "NORAD_CAT_ID": 35670, "ELEMENT_SET_NO": 999, "REV_AT_EPOCH": 87517, "BSTAR": 0.0014749382, "MEAN_MOTION_DOT": 0.00015661, "MEAN_MOTION_DDOT": 0}, "tle": {"line1": "1 35670U 93036APM 25332.68170016  .00015661  00000+0  14749-2 0  9991", "line2": "2 35670  73.8939  93.0212 0036876  58.8210 301.6579 14.93319544875175"}}, "geometry": {"type": "Point", "coordinates": [122.9255548557513, 65.16139644952179]}}, {"type": "Feature", "properties": {"norad_id": 35671, "name": "COSMOS 2251 DEB", "group": "cosmos-2251-debris", "lat": -54.110502849942016, "lon": 74.27604042834852, "alt_km": 712.0324307382134, "timestamp": "2025-12-02T23:34:15.913746+00:00", "meta": {"OBJECT_NAME": "COSMOS 2251 DEB", "OBJECT_ID": "1993-036APN", "EPOCH": "2025-12-01T08:11:18.472992", "MEAN_MOTION": 14.48314652, "ECCENTRICITY": 0.0041561, "INCLINATION": 74.0169, "RA_OF_ASC_NODE": 100.6857, "ARG_OF_PERICENTER": 276.6997, "MEAN_ANOMALY": 113.402, "EPHEMERIS_TYPE": 0, "CLASSIFICATION_TYPE": "U", "NORAD_CAT_ID": 35671, "ELEMENT_SET_NO": 999, "REV_AT_EPOCH": 86598, "BSTAR": 0.00028068473, "MEAN_MOTION_DOT": 1.032e-05, "MEAN_MOTION_DDOT": 0}, "tle": {"line1": "1 35671U 93036APN 25335.34118603  .00001032  00000+0  28068-3 0  9999", "line2": "2 35671  74.0169 100.6857 0041561 276.6997 113.4020 14.48314652865986"}}, "geometry": {"type": "Point", "coordinates": [74.27604042834852, -54.110502849942016]}}, {"type": "Feature", "properties": {"norad_id": 35674, "name": "COSMOS 2251 DEB", "group": "cosmos-2251-debris", "lat": -23.23776336120307, "lon": -32.116636657723596, "alt_km": 670.4260987553689, "timestamp": "2025-12-02T23:34:15.913757+00:00", "meta": {"OBJECT_NAME": "COSMOS 2251 DEB", "OBJECT_ID": "1993-036APR", "EPOCH": "2025-12-02T10:28:10.862112", "MEAN_MOTION": 14.53935413, "ECCENTRICITY": 0.009596, "INCLINATION": 74.0597, "RA_OF_ASC_NODE": 335.9623, "ARG_OF_PERICENTER": 23.2163, "MEAN_ANOMALY": 337.329, "EPHEMERIS_TYPE": 0, "CLASSIFICATION_TYPE": "U", "NORAD_CAT_ID": 35674, "ELEMENT_SET_NO": 999, "REV_AT_EPOCH": 85961, "BSTAR": 0.0019444, "MEAN_MOTION_DOT": 8.683e-05, "MEAN_MOTION_DDOT": 0}, "tle": {"line1": "1 35674U 93036APR 25336.43623683  .00008683  00000+0  19444-2 0  9998", "line2": "2 35674  74.0597 335.9623 0095960  23.2163 337.3290 14.53935413859610"}}, "geometry": {"type": "Point", "coordinates": [-32.116636657723596, -23.23776336120307]}}, {"type": "Feature", "properties": {"norad_id": 35703, "name": "COSMOS 2251 DEB", "group": "cosmos-2251-debris", "lat": 66.01025016987447, "lon": -157.72413399084795, "alt_km": 550.0834470785057, "timestamp": "2025-12-02T23:34:15.913767+00:00", "meta": {"OBJECT_NAME": "COSMOS 2251 DEB", "OBJECT_ID": "1993-036APY", "EPOCH": "2025-11-29T12:54:34.216128", "MEAN_MOTION": 14.90033275, "ECCENTRICITY": 0.00657991, "INCLINATION": 74.0417, "RA_OF_ASC_NODE": 69.1804, "ARG_OF_PERICENTER": 143.4261, "MEAN_ANOMALY": 217.1441, "EPHEMERIS_TYPE": 0, "CLASSIFICATION_TYPE": "U", "NORAD_CAT_ID": 35703, "ELEMENT_SET_NO": 999, "REV_AT_EPOCH": 66419, "BSTAR": 0.00097213112, "MEAN_MOTION_DOT": 9.751e-05, "MEAN_MOTION_DDOT": 0}, "tle": {"line1": "1 35703U 93036APY 25333.53789602  .00009751  00000+0  97213-3 0  9991", "line2": "2 35703  74.0417  69.1804 0065799 143.4261 217.1441 14.90033275664198"}}, "geometry": {"type": "Point", "coordinates": [-157.72413399084795, 66.01025016987447]}}, {"type": "Feature", "properties": {"norad_id": 35705, "name": "COSMOS 2251 DEB", "group": "cosmos-2251-debris", "lat": 6.650538525107377, "lon": -27.367073366485844, "alt_km": 646.0379275450487, "timestamp": "2025-12-02T23:34:15.913778+00:00", "meta": {"OBJECT_NAME": "COSMOS 2251 DEB", "OBJECT_ID": "1993-036AQA", "EPOCH": "2025-11-30T18:34:55.460928", "MEAN_MOTION": 14.71601566, "ECCENTRICITY": 0.00343203, "INCLINATION": 74.2748, "RA_OF_ASC_NODE": 158.7429, "ARG_OF_PERICENTER": 116.054, "MEAN_ANOMALY": 244.4173, "EPHEMERIS_TYPE": 0, "CLASSIFICATION_TYPE": "U", "NORAD_CAT_ID": 35705, "ELEMENT_SET_NO": 999, "REV_AT_EPOCH": 85750, "BSTAR": 0.0026714631, "MEAN_MOTION_DOT": 0.00016783, "MEAN_MOTION_DDOT": 0}, "tle": {"line1": "1 35705U 93036AQA 25334.77425302  .00016783  00000+0  26715-2 0  9995", "line2": "2 35705  74.2748 158.7429 0034320 116.0540 244.4173 14.71601566857506"}}, "geometry": {"type": "Point", "coordinates": [-27.367073366485844, 6.650538525107377]}}, {"type": "Feature", "properties": {"norad_id": 35706, "name": "COSMOS 2251 DEB", "group": "cosmos-2251-debris", "lat": -17.52391416080375, "lon": -95.83574981996809, "alt_km": 915.2304558459155, "timestamp": "2025-12-02T23:34:15.913788+00:00", "meta": {"OBJECT_NAME": "COSMOS 2251 DEB", "OBJECT_ID": "1993-036AQB", "EPOCH": "2025-12-01T13:14:17.826144", "MEAN_MOTION": 13.65877076, "ECCENTRICITY": 0.03419141, "INCLINATION": 73.888, "RA_OF_ASC_NODE": 81.2903, "ARG_OF_PERICENTER": 133.1878, "MEAN_ANOMALY": 229.8353, "EPHEMERIS_TYPE": 0, "CLASSIFICATION_TYPE": "U", "NORAD_CAT_ID": 35706, "ELEMENT_SET_NO": 999, "REV_AT_EPOCH": 61909, "BSTAR": 0.0013112957, "MEAN_MOTION_DOT": 1.587e-05, "MEAN_MOTION_DDOT": 0}, "tle": {"line1": "1 35706U 93036AQB 25335.55159521  .00001587  00000+0  13113-2 0  9994", "line2": "2 35706  73.8880  81.2903 0341914 133.1878 229.8353 13.65877076619090"}}, "geometry": {"type": "Point", "coordinates": [-95.83574981996809, -17.52391416080375]}}, {"type": "Feature", "properties": {"norad_id": 35711, "name": "COSMOS 2251 DEB", "group": "cosmos-2251-debris", "lat": 67.99105335877692, "lon": -75.77213016981563, "alt_km": 675.8398295442685, "timestamp": "2025-12-02T23:34:15.913798+00:00", "meta": {"OBJECT_NAME": "COSMOS 2251 DEB", "OBJECT_ID": "1993-036AQG", "EPOCH": "2025-12-02T00:16:13.414368", "MEAN_MOTION": 14.63746545, "ECCENTRICITY": 0.0085061, "INCLINATION": 74.0469, "RA_OF_ASC_NODE": 241.0434, "ARG_OF_PERICENTER": 344.6598, "MEAN_ANOMALY": 15.1992, "EPHEMERIS_TYPE": 0, "CLASSIFICATION_TYPE": "U", "NORAD_CAT_ID": 35711, "ELEMENT_SET_NO": 999, "REV_AT_EPOCH": 87614, "BSTAR": 0.00037639463, "MEAN_MOTION_DOT": 2.034e-05, "MEAN_MOTION_DDOT": 0}, "tle": {"line1": "1 35711U 93036AQG 25336.01126637  .00002034  00000+0  37639-3 0  9992", "line2": "2 35711  74.0469 241.0434 0085061 344.6598  15.1992 14.63746545876144"}}, "geometry": {"type": "Point", "coordinates": [-75.77213016981563, 67.99105335877692]}}, {"type": "Feature", "properties": {"norad_id": 35716, "name": "COSMOS 2251 DEB", "group": "cosmos-2251-debris", "lat": -69.90586994879818, "lon": 161.18563634933838, "alt_km": 743.1315423527603, "timestamp": "2025-12-02T23:34:15.913808+00:00", "meta": {"OBJECT_NAME": "COSMOS 2251 DEB", "OBJECT_ID": "1993-036AQM", "EPOCH": "2025-12-01T00:31:48.079200", "MEAN_MOTION": 14.60063594, "ECCENTRICITY": 0.00883976, "INCLINATION": 73.9936, "RA_OF_ASC_NODE": 216.6246, "ARG_OF_PERICENTER": 60.6815, "MEAN_ANOMALY": 4.1449, "EPHEMERIS_TYPE": 0, "CLASSIFICATION_TYPE": "U", "NORAD_CAT_ID": 35716, "ELEMENT_SET_NO": 999, "REV_AT_EPOCH": 87456, "BSTAR": 0.00013723681, "MEAN_MOTION_DOT": 6.64e-06, "MEAN_MOTION_DDOT": 0}, "tle": {"line1": "1 35716U 93036AQM 25335.02208425  .00000664  00000+0  13724-3 0  9999", "line2": "2 35716  73.9936 216.6246 0088397  60.6815   4.1449 14.60063594874569"}}, "geometry": {"type": "Point", "coordinates": [161.18563634933838, -69.90586994879818]}}, {"type": "Feature", "properties": {"norad_id": 35717, "name": "COSMOS 2251 DEB", "group": "cosmos-2251-debris", "lat": 74.10553306138955, "lon": -30.17580650093889, "alt_km": 702.578973099924, "timestamp": "2025-12-02T23:34:15.913818+00:00", "meta": {"OBJECT_NAME": "COSMOS 2251 DEB", "OBJECT_ID": "1993-036AQN", "EPOCH": "2025-11-20T02:19:42.985056", "MEAN_MOTION": 14.38259242, "ECCENTRICITY": 0.00762455, "INCLINATION": 74.1612, "RA_OF_ASC_NODE": 258.9085, "ARG_OF_PERICENTER": 125.8129, "MEAN_ANOMALY": 235.0143, "EPHEMERIS_TYPE": 0, "CLASSIFICATION_TYPE": "U", "NORAD_CAT_ID": 35717, "ELEMENT_SET_NO": 999, "REV_AT_EPOCH": 73774, "BSTAR": 0.0010708512, "MEAN_MOTION_DOT": 3.344e-05, "MEAN_MOTION_DDOT": 0}, "tle": {"line1": "1 35717U 93036AQN 25324.09702529  .00003344  00000+0  10709-2 0  9996", "line2": "2 35717  74.1612 258.9085 0076245 125.8129 235.0143 14.38259242737741"}}, "geometry": {"type": "Point", "coordinates": [-30.17580650093889, 74.10553306138955]}}]}